"country_school","school","country","lat","lng","Nex","Npos"
"liberia-10562",10562,"liberia",6.455861111,-8.964611111,30,8
"liberia-10563",10563,"liberia",6.608694444,-9.057194444,30,7
"liberia-10564",10564,"liberia",6.682722222,-9.094438889,29,9
"liberia-10565",10565,"liberia",6.544236,-9.059736,30,10
"liberia-10566",10566,"liberia",6.705402778,-9.054444444,30,6
"liberia-10567",10567,"liberia",6.711805556,-9.120597222,30,11
"liberia-10568",10568,"liberia",6.453666667,-8.997333333,30,7
"liberia-10569",10569,"liberia",6.81625,-8.9831388,30,10
"liberia-10572",10572,"liberia",6.65551,-9.124722,30,19
"liberia-10573",10573,"liberia",6.4593175,-8.95201,30,9
"liberia-10574",10574,"liberia",6.7394303,-8.9930833,30,8
"liberia-10575",10575,"liberia",6.7849444,-8.99415275,30,9
"liberia-10576",10576,"liberia",6.521083333,-9.023263889,30,12
"liberia-10577",10577,"liberia",6.50725,-9.092555556,30,7
"liberia-10578",10578,"liberia",6.545240278,-8.959305556,30,10
"liberia-10580",10580,"liberia",6.747222111,-9.107833333,30,11
"liberia-11521",11521,"liberia",6.709458333,-8.505791667,30,4
"liberia-11522",11522,"liberia",6.834888889,-8.533861111,30,5
"liberia-11523",11523,"liberia",6.909986111,-8.675259722,28,6
"liberia-11524",11524,"liberia",6.61675,-8.510458333,30,9
"liberia-11525",11525,"liberia",6.847805556,-8.649694444,30,3
"liberia-11526",11526,"liberia",6.767859167,-8.497930556,30,4
"liberia-11527",11527,"liberia",6.829527778,-8.575361111,30,3
"liberia-11528",11528,"liberia",6.707055556,-8.472222,30,3
"liberia-11532",11532,"liberia",6.759041667,-8.62775,29,9
"liberia-11533",11533,"liberia",6.711716667,-8.630166667,30,8
"liberia-11534",11534,"liberia",6.807430556,-8.605,30,8
"liberia-11535",11535,"liberia",6.825833333,-8.545,30,3
"liberia-11536",11536,"liberia",6.7105,-8.6685,30,0
"liberia-11538",11538,"liberia",6.871194444,-8.531805556,30,3
"liberia-11540",11540,"liberia",6.725861111,-8.487277778,29,5
"liberia-12501",12501,"liberia",6.458444444,-8.6944445,30,3
"liberia-12502",12502,"liberia",6.694055556,-8.605638889,30,20
"liberia-12503",12503,"liberia",6.492541667,-8.748055556,30,11
"liberia-12504",12504,"liberia",6.500388889,-8.732166667,30,11
"liberia-12505",12505,"liberia",6.522569444,-8.847291667,30,8
"liberia-12506",12506,"liberia",6.48275,-8.735766667,30,8
"liberia-12507",12507,"liberia",6.558583333,-8.657916667,30,5
"liberia-12508",12508,"liberia",6.443388889,-8.636430556,30,9
"liberia-12509",12509,"liberia",6.51725,-8.705680556,30,10
"liberia-12510",12510,"liberia",6.54375,-8.690319444,30,5
"liberia-12512",12512,"liberia",6.567694444,-8.889000008,30,8
"liberia-12513",12513,"liberia",6.504652778,-8.902763889,30,8
"liberia-12514",12514,"liberia",6.489583333,-8.761527778,30,12
"liberia-12516",12516,"liberia",6.640652778,-8.794680556,30,9
"liberia-12517",12517,"liberia",6.616763889,-8.820097222,29,6
"liberia-12518",12518,"liberia",6.496277778,-8.871444444,30,2
"liberia-12519",12519,"liberia",6.667194444,-8.863486111,30,3
"liberia-12520",12520,"liberia",6.498277778,-8.850666667,30,6
"liberia-1321",1321,"liberia",6.280471111,-10.33420822,28,1
"liberia-1329",1329,"liberia",6.246360944,-10.34919444,28,1
"liberia-1330",1330,"liberia",6.214027777,-10.36570833,26,0
"liberia-1331",1331,"liberia",6.2442083,-10.3710972,24,1
"liberia-1333",1333,"liberia",6.25179165,-10.3869861,28,1
"liberia-1334",1334,"liberia",6.246319444,-10.37016667,27,1
"liberia-1335",1335,"liberia",6.263,-10.357875,27,1
"liberia-1336",1336,"liberia",6.25972222,-10.36025,27,1
"liberia-1337",1337,"liberia",6.256374995,-10.36347222,29,1
"liberia-13481",13481,"liberia",6.859944444,-9.072013889,29,12
"liberia-13482",13482,"liberia",6.878619444,-9.047319444,30,12
"liberia-13483",13483,"liberia",6.893083333,-9.058972222,30,6
"liberia-13484",13484,"liberia",6.894361111,-9.113625,30,8
"liberia-13485",13485,"liberia",6.931069444,-9.120308194,30,15
"liberia-13486",13486,"liberia",7.012319444,-9.074888889,30,9
"liberia-13487",13487,"liberia",7.030346667,-9.029333333,30,11
"liberia-13488",13488,"liberia",7.074236111,-9.027541667,28,19
"liberia-13489",13489,"liberia",7.093013889,-9.008013889,30,16
"liberia-13490",13490,"liberia",7.103569444,-8.988416667,30,18
"liberia-13491",13491,"liberia",7.114152778,-8.934277778,30,13
"liberia-13492",13492,"liberia",7.067416667,-8.931055556,30,16
"liberia-13493",13493,"liberia",7.073652778,-8.951986111,26,14
"liberia-13494",13494,"liberia",7.107638889,-8.915972222,30,7
"liberia-13495",13495,"liberia",7.072944444,-8.904472222,30,8
"liberia-13496",13496,"liberia",7.142722222,-9.057444444,30,8
"liberia-13497",13497,"liberia",7.133444444,-9.065263889,30,9
"liberia-13498",13498,"liberia",7.104694444,-9.084805556,30,12
"liberia-13499",13499,"liberia",7.105875,-8.907208333,30,10
"liberia-13500",13500,"liberia",7.082205556,-8.875486111,30,9
"liberia-14461",14461,"liberia",6.989236111,-8.551527778,30,15
"liberia-14462",14462,"liberia",6.966916667,-8.839680556,30,17
"liberia-14464",14464,"liberia",6.973902778,-8.337916667,30,9
"liberia-14465",14465,"liberia",6.941555556,-8.626666667,30,5
"liberia-14467",14467,"liberia",6.958722222,-8.431527778,30,6
"liberia-14468",14468,"liberia",6.934744444,-8.622516667,30,6
"liberia-14469",14469,"liberia",6.829268056,-8.375,29,7
"liberia-14470",14470,"liberia",6.829661111,-8.325,30,6
"liberia-14471",14471,"liberia",6.964458333,-8.416189444,30,7
"liberia-14472",14472,"liberia",6.881388889,-8.906555556,30,6
"liberia-14473",14473,"liberia",6.897166667,-8.533180556,30,6
"liberia-14474",14474,"liberia",6.869527778,-8.591666667,30,5
"liberia-14475",14475,"liberia",6.917291667,-8.841615278,30,6
"liberia-14476",14476,"liberia",7.026486111,-8.849638889,30,8
"liberia-14479",14479,"liberia",6.930472222,-8.869166667,30,7
"liberia-14480",14480,"liberia",6.969291667,-8.835138889,30,6
"liberia-15541",15541,"liberia",7.276305556,-8.691694444,30,9
"liberia-15542",15542,"liberia",7.276583333,-8.674,30,5
"liberia-15543",15543,"liberia",7.251638889,-8.659138889,30,21
"liberia-15544",15544,"liberia",7.2275,-8.690333333,30,13
"liberia-15545",15545,"liberia",7.193472222,-8.712,29,9
"liberia-15546",15546,"liberia",7.303111111,-8.621166667,30,8
"liberia-15547",15547,"liberia",7.281138889,-8.605611111,30,11
"liberia-15548",15548,"liberia",7.285055556,-8.624138889,30,11
"liberia-15549",15549,"liberia",7.284972222,-8.648666667,30,14
"liberia-15550",15550,"liberia",7.255861111,-8.622444444,24,8
"liberia-15551",15551,"liberia",7.290111111,-8.580805556,30,1
"liberia-15552",15552,"liberia",7.253472222,-8.581361111,30,4
"liberia-15553",15553,"liberia",7.18025,-8.617583333,30,2
"liberia-15554",15554,"liberia",7.181861111,-8.622638889,30,3
"liberia-15555",15555,"liberia",7.197361111,-8.661333333,30,4
"liberia-15556",15556,"liberia",7.182305556,-8.647333333,30,1
"liberia-15557",15557,"liberia",7.214138889,-8.641555556,29,2
"liberia-15558",15558,"liberia",7.126444444,-8.758388889,30,1
"liberia-15559",15559,"liberia",7.126861111,-8.731777778,30,1
"liberia-15560",15560,"liberia",7.162638889,-8.713361111,30,1
"liberia-16341",16341,"liberia",7.5444444,-8.5586666,30,1
"liberia-16342",16342,"liberia",7.4104166,-8.68794691,30,0
"liberia-16343",16343,"liberia",7.5743194,-8.5439027,30,1
"liberia-16344",16344,"liberia",7.369249995,-8.745904163,30,0
"liberia-16345",16345,"liberia",7.40309715,-8.7999722,30,2
"liberia-16347",16347,"liberia",7.369611105,-8.71194444,30,0
"liberia-16348",16348,"liberia",7.37655555,-8.70701388,29,0
"liberia-16349",16349,"liberia",7.409624995,-8.662888885,30,0
"liberia-16350",16350,"liberia",7.572083325,-8.53716666,30,2
"liberia-16351",16351,"liberia",7.35,-8.7097495,30,0
"liberia-16352",16352,"liberia",7.64940275,-8.6848472,30,0
"liberia-16353",16353,"liberia",7.60676385,-8.6188194,30,1
"liberia-16354",16354,"liberia",7.54463885,-8.5610277,30,3
"liberia-16355",16355,"liberia",7.6891805,-8.57288885,29,0
"liberia-16356",16356,"liberia",7.3443605,-8.717569,30,0
"liberia-16357",16357,"liberia",7.5748885,-8.5480415,30,0
"liberia-16358",16358,"liberia",7.5691944,-8.54698605,30,0
"liberia-16360",16360,"liberia",7.3580416,-8.7124718,29,0
"liberia-17362",17362,"liberia",7.273555,-8.498416,30,0
"liberia-17363",17363,"liberia",7.24852777,-8.519388885,30,0
"liberia-17366",17366,"liberia",7.2658194,-8.50465275,30,1
"liberia-17367",17367,"liberia",7.2764166,-8.49938885,29,0
"liberia-17368",17368,"liberia",7.26144443,-8.48987495,30,1
"liberia-17370",17370,"liberia",7.30951385,-8.53995832,30,1
"liberia-17371",17371,"liberia",7.33698605,-8.57945805,30,0
"liberia-17372",17372,"liberia",7.3774444,-8.5721527,30,0
"liberia-17373",17373,"liberia",7.390305,-8.51751385,30,0
"liberia-17374",17374,"liberia",7.3409861,-8.4468194,30,0
"liberia-17375",17375,"liberia",7.35874995,-8.5163333,30,0
"liberia-17376",17376,"liberia",7.3202775,-8.4734165,30,0
"liberia-17377",17377,"liberia",7.32597215,-8.44923605,30,0
"liberia-17379",17379,"liberia",7.4088472,-8.45226385,30,0
"liberia-17380",17380,"liberia",7.28549995,-8.4460833,30,0
"liberia-18401",18401,"liberia",7.025569444,-8.731402778,30,2
"liberia-18402",18402,"liberia",7.029208333,-8.726847222,30,0
"liberia-18403",18403,"liberia",7.080097222,-8.757458333,30,0
"liberia-18404",18404,"liberia",7.102194444,-8.750486111,30,1
"liberia-18405",18405,"liberia",7.049597222,-8.649527778,30,4
"liberia-18406",18406,"liberia",7.083888889,-8.808444444,30,0
"liberia-18407",18407,"liberia",7.009708333,-8.676555556,30,0
"liberia-18408",18408,"liberia",7.016541667,-8.779569444,30,1
"liberia-18409",18409,"liberia",6.9795,-8.762305556,30,1
"liberia-18410",18410,"liberia",7.039958333,-8.764305556,30,0
"liberia-18411",18411,"liberia",7.102944444,-8.760180556,30,1
"liberia-18412",18412,"liberia",7.066458333,-8.726019444,30,1
"liberia-18414",18414,"liberia",7.108236111,-8.710097222,30,1
"liberia-18415",18415,"liberia",7.107125,-8.674069444,30,0
"liberia-18416",18416,"liberia",7.053916667,-8.573138889,30,2
"liberia-18417",18417,"liberia",7.125347222,-8.605458333,30,1
"liberia-18418",18418,"liberia",7.121777778,-8.630722222,30,0
"liberia-19382",19382,"liberia",7.241847,-8.99228,30,0
"liberia-19383",19383,"liberia",7.2268,-8.98911,30,0
"liberia-19384",19384,"liberia",7.237705,-8.9882055,30,0
"liberia-19385",19385,"liberia",7.221194,-8.97346,30,0
"liberia-19386",19386,"liberia",7.2117083,-8.89490275,30,0
"liberia-19387",19387,"liberia",7.2270555,-8.9797916,30,0
"liberia-19388",19388,"liberia",7.228995,-8.9794405,30,0
"liberia-19389",19389,"liberia",7.223234,-8.94027,30,0
"liberia-19392",19392,"liberia",7.22738,-8.97118,30,0
"liberia-19393",19393,"liberia",7.217285,-8.978355,30,0
"liberia-19394",19394,"liberia",7.223347,-8.892347,30,0
"liberia-19395",19395,"liberia",7.226805,-8.9766105,30,0
"liberia-19396",19396,"liberia",7.2372025,-8.9820415,30,0
"liberia-19397",19397,"liberia",7.241527,-8.98394,30,0
"liberia-19398",19398,"liberia",7.21533,-8.97843,30,0
"liberia-19399",19399,"liberia",7.240305556,-8.992555,30,0
"liberia-2001",2001,"liberia",7.00205,-9.45481,30,5
"liberia-2002",2002,"liberia",6.984885,-9.46726,26,2
"liberia-2008",2008,"liberia",7.011325,-9.488765,30,15
"liberia-2010",2010,"liberia",7.004595,-9.472055,29,3
"liberia-2012",2012,"liberia",6.995135,-9.464705,27,10
"liberia-2013",2013,"liberia",7.00501,-9.478375,27,8
"liberia-2014",2014,"liberia",7.006125,-9.469915,30,7
"liberia-2016",2016,"liberia",7.0012,-9.470015,7,6
"liberia-2018",2018,"liberia",6.974905,-9.479765,29,5
"liberia-2019",2019,"liberia",6.998155,-9.459755,30,7
"liberia-20421",20421,"liberia",7.005013889,-8.464402778,29,1
"liberia-20422",20422,"liberia",6.976625,-8.421097222,30,3
"liberia-20423",20423,"liberia",6.879694,-8.3906765,30,2
"liberia-20426",20426,"liberia",6.903152,-8.3885275,30,2
"liberia-20427",20427,"liberia",6.94958,-8.39326,30,1
"liberia-20428",20428,"liberia",6.8674555,-8.356666,30,2
"liberia-20429",20429,"liberia",6.8430415,-8.327736,30,3
"liberia-20430",20430,"liberia",6.887041667,-8.397333333,29,0
"liberia-20431",20431,"liberia",6.793722222,-8.383180556,30,3
"liberia-20432",20432,"liberia",6.949163889,-8.514236111,30,1
"liberia-20433",20433,"liberia",6.902166667,-8.479027778,30,4
"liberia-20434",20434,"liberia",6.829597222,-8.344583333,30,1
"liberia-20435",20435,"liberia",6.835902778,-8.342308333,30,2
"liberia-20437",20437,"liberia",6.753013889,-8.420527778,30,2
"liberia-20438",20438,"liberia",6.77525,-8.369458333,30,3
"liberia-20439",20439,"liberia",6.876708333,-8.455416667,30,1
"liberia-20440",20440,"liberia",6.894319444,-8.515041667,29,2
"liberia-21441",21441,"liberia",7.0430105,-8.3596525,29,2
"liberia-21442",21442,"liberia",7.057597,-8.308666,30,0
"liberia-21443",21443,"liberia",7.1297635,-8.4684275,30,0
"liberia-21444",21444,"liberia",7.146249994,-8.563958111,30,3
"liberia-21445",21445,"liberia",7.182541667,-8.562541667,30,3
"liberia-21446",21446,"liberia",7.003194444,-8.337152778,30,5
"liberia-21447",21447,"liberia",7.050625,-8.454791667,30,3
"liberia-21448",21448,"liberia",7.0814861,-8.422069167,30,8
"liberia-21449",21449,"liberia",7.1456666,-8.5536805,30,0
"liberia-21450",21450,"liberia",7.187402,-8.50168,30,1
"liberia-21451",21451,"liberia",7.0241805,-8.3272916,30,1
"liberia-21452",21452,"liberia",7.0079305,-8.3102083,30,3
"liberia-21453",21453,"liberia",7.119847222,-8.403680556,30,0
"liberia-21454",21454,"liberia",7.20214995,-8.5504305,29,2
"liberia-21455",21455,"liberia",7.1307361,-8.57662495,30,2
"liberia-21456",21456,"liberia",7.118194,-8.550958,30,1
"liberia-21457",21457,"liberia",7.102097,-8.41643,30,2
"liberia-21458",21458,"liberia",7.1194722,-8.4999583,30,1
"liberia-21459",21459,"liberia",7.045986,-8.324319,30,3
"liberia-21460",21460,"liberia",7.152736,-8.48368,30,0
"liberia-22212",22212,"liberia",8.366595,-10.242425,30,0
"liberia-22213",22213,"liberia",8.3744,-10.20178,30,1
"liberia-22214",22214,"liberia",8.40806,-10.17879,30,2
"liberia-22215",22215,"liberia",8.396715,-10.262235,30,3
"liberia-22216",22216,"liberia",8.358985,-10.216955,30,5
"liberia-22217",22217,"liberia",8.49116,-10.158415,30,3
"liberia-22218",22218,"liberia",8.27961,-10.23641,28,4
"liberia-22219",22219,"liberia",8.454065,-10.17066,30,2
"liberia-23162",23162,"liberia",8.06266,-10.50682,30,2
"liberia-23163",23163,"liberia",8.061545,-10.50819,30,1
"liberia-23165",23165,"liberia",8.06385,-10.501595,30,1
"liberia-23167",23167,"liberia",8.02726,-10.57002,30,1
"liberia-23169",23169,"liberia",8.078675,-10.47307,30,0
"liberia-23170",23170,"liberia",8.03143,-10.560755,30,1
"liberia-24281",24281,"liberia",6.527944444,-10.35355,30,0
"liberia-24282",24282,"liberia",6.529013889,-10.35322222,30,0
"liberia-24283",24283,"liberia",6.530708333,-10.34969444,30,0
"liberia-24284",24284,"liberia",6.535055556,-10.34656111,30,0
"liberia-24285",24285,"liberia",6.53355555,-10.34675,30,0
"liberia-24287",24287,"liberia",6.53675,-10.35816667,30,0
"liberia-24288",24288,"liberia",6.535708333,-10.34480556,30,0
"liberia-24291",24291,"liberia",6.627097222,-10.28434722,30,0
"liberia-24292",24292,"liberia",6.695013889,-10.25986111,30,1
"liberia-24293",24293,"liberia",6.639361111,-10.23968056,30,0
"liberia-24294",24294,"liberia",6.732501667,-10.35433333,30,0
"liberia-24295",24295,"liberia",6.672377778,-10.35141667,30,0
"liberia-24296",24296,"liberia",6.538277778,-10.33997222,29,2
"liberia-24297",24297,"liberia",6.815805556,-10.22406944,30,0
"liberia-24298",24298,"liberia",6.534694444,-10.338625,25,2
"liberia-24299",24299,"liberia",6.689805556,-10.20804167,30,0
"liberia-24300",24300,"liberia",6.534513889,-10.34791667,30,0
"liberia-25261",25261,"liberia",8.421095,-9.75111,30,0
"liberia-25262",25262,"liberia",8.37753,-9.81475,30,2
"liberia-25263",25263,"liberia",8.3188,-9.723625,30,4
"liberia-25264",25264,"liberia",8.33773,-9.711985,30,2
"liberia-25265",25265,"liberia",8.428715,-9.736635,30,1
"liberia-25266",25266,"liberia",8.49208,-9.658775,30,2
"liberia-25267",25267,"liberia",8.462235,-9.669125,30,3
"liberia-25268",25268,"liberia",8.399765,-9.64527,30,0
"liberia-25269",25269,"liberia",8.45773,-9.774095,30,1
"liberia-25270",25270,"liberia",8.43314,-9.76906,30,2
"liberia-25271",25271,"liberia",8.246675,-9.777535,30,3
"liberia-25272",25272,"liberia",8.48615,-9.800485,30,3
"liberia-25273",25273,"liberia",8.27841,-9.718645,30,3
"liberia-25274",25274,"liberia",8.29205,-9.640795,30,5
"liberia-25275",25275,"liberia",8.33044,-9.73302,30,1
"liberia-25276",25276,"liberia",8.40876,-9.61126,30,8
"liberia-25277",25277,"liberia",8.42362,-9.77143,30,1
"liberia-25278",25278,"liberia",8.373785,-9.63714,30,0
"liberia-25279",25279,"liberia",8.36768,-9.909505,30,3
"liberia-26171",26171,"liberia",8.16079,-10.21493,30,1
"liberia-26172",26172,"liberia",8.338245,-10.092335,30,1
"liberia-26174",26174,"liberia",8.397855,-10.02526,30,2
"liberia-26176",26176,"liberia",8.220875,-10.17414,30,4
"liberia-26177",26177,"liberia",8.144645,-10.28893,30,2
"liberia-26178",26178,"liberia",8.13195,-10.081383,30,3
"liberia-26179",26179,"liberia",8.10542,-10.354585,30,2
"liberia-26180",26180,"liberia",8.34451,-10.0553,30,2
"liberia-26183",26183,"liberia",8.222445,-10.15413,30,0
"liberia-26184",26184,"liberia",8.148505,-10.23278,30,1
"liberia-26185",26185,"liberia",8.174695,-10.201195,30,4
"liberia-26186",26186,"liberia",8.293225,-10.133025,30,1
"liberia-26187",26187,"liberia",8.01561,-10.154015,30,2
"liberia-26188",26188,"liberia",8.110325,-10.091715,30,1
"liberia-26189",26189,"liberia",8.357075,-10.138985,30,3
"liberia-26190",26190,"liberia",8.28524,-10.086435,30,2
"liberia-26191",26191,"liberia",8.289395,-10.157865,30,0
"liberia-26192",26192,"liberia",8.367885,-10.045645,30,1
"liberia-26193",26193,"liberia",8.14937,-10.096855,30,3
"liberia-26194",26194,"liberia",8.222735,-10.08245,30,0
"liberia-26197",26197,"liberia",8.291675,-10.13127,30,2
"liberia-26198",26198,"liberia",8.21787,-10.18894,30,2
"liberia-26199",26199,"liberia",8.250825,-10.181815,30,3
"liberia-27221",27221,"liberia",7.66124,-9.593695,30,12
"liberia-27227",27227,"liberia",7.90917,-9.448515,30,14
"liberia-27228",27228,"liberia",7.97808,-9.46391,30,12
"liberia-27229",27229,"liberia",7.98798,-9.47291,30,10
"liberia-27231",27231,"liberia",7.941655,-9.58589,30,12
"liberia-27233",27233,"liberia",7.73682,-9.52147,30,14
"liberia-27235",27235,"liberia",7.822715,-9.47598,30,7
"liberia-27236",27236,"liberia",7.71826,-9.468575,28,3
"liberia-27237",27237,"liberia",7.769885,-9.54154,28,3
"liberia-27239",27239,"liberia",7.770995,-9.531645,30,6
"liberia-28241",28241,"liberia",7.647615,-9.67915,30,12
"liberia-28244",28244,"liberia",7.761625,-9.42746,30,9
"liberia-28245",28245,"liberia",7.660385,-9.532795,29,10
"liberia-28246",28246,"liberia",7.66012,-9.43495,30,6
"liberia-28247",28247,"liberia",7.67563,-9.447055,30,6
"liberia-28251",28251,"liberia",7.571985,-9.60202,30,12
"liberia-28252",28252,"liberia",7.72273,-9.542,30,5
"liberia-28253",28253,"liberia",7.44185,-9.57185,29,19
"liberia-28258",28258,"liberia",7.373635,-9.521275,30,12
"liberia-28259",28259,"liberia",7.46687,-9.73855,29,16
"liberia-28260",28260,"liberia",7.475455,-9.62178,30,14
"liberia-29301",29301,"liberia",6.672125,-10.17893056,30,1
"liberia-29302",29302,"liberia",6.641708333,-10.15259722,30,0
"liberia-29303",29303,"liberia",6.553416667,-10.27975,30,0
"liberia-29306",29306,"liberia",6.594972222,-10.01688889,26,3
"liberia-29307",29307,"liberia",6.580806806,-10.01176389,29,2
"liberia-29308",29308,"liberia",6.634041667,-9.992888889,30,0
"liberia-29309",29309,"liberia",6.620291667,-10.13761111,30,0
"liberia-29310",29310,"liberia",6.66525,-10.12645833,30,0
"liberia-29311",29311,"liberia",6.583916667,-10.15072222,30,0
"liberia-29312",29312,"liberia",6.572083333,-9.966569444,15,0
"liberia-29313",29313,"liberia",6.547111111,-9.928680556,30,0
"liberia-29314",29314,"liberia",6.505791667,-10.07030556,30,0
"liberia-29318",29318,"liberia",6.546,-10.2456,27,0
"liberia-29319",29319,"liberia",6.551888889,-10.27472222,28,4
"liberia-29320",29320,"liberia",6.550402778,-10.287625,30,1
"liberia-3081",3081,"liberia",7.00052,-9.51562,30,5
"liberia-3082",3082,"liberia",6.888205,-9.674595,30,22
"liberia-3083",3083,"liberia",7.014835,-9.56998,30,5
"liberia-3085",3085,"liberia",7.04145,-9.55516,29,2
"liberia-3086",3086,"liberia",7.0073,-9.640245,30,11
"liberia-3087",3087,"liberia",6.74892,-9.676955,30,8
"liberia-3089",3089,"liberia",6.803505,-9.65678,30,25
"liberia-3090",3090,"liberia",7.02291,-9.55629,30,3
"liberia-3091",3091,"liberia",6.82914,-9.64898,30,9
"liberia-3093",3093,"liberia",6.8841,-9.75472,30,8
"liberia-3094",3094,"liberia",6.943,-9.57588,29,5
"liberia-3095",3095,"liberia",7.013855,-9.56673,30,1
"liberia-3096",3096,"liberia",6.84658,-9.82089,30,10
"liberia-3097",3097,"liberia",6.8404,-9.79116,30,18
"liberia-3098",3098,"liberia",6.939945,-9.636375,30,5
"liberia-3099",3099,"liberia",6.853645,-9.66385,30,13
"liberia-3100",3100,"liberia",6.83554,-9.84361,30,5
"liberia-4063",4063,"liberia",6.85678,-9.51112,30,12
"liberia-4064",4064,"liberia",6.80448,-9.44305,22,22
"liberia-4065",4065,"liberia",6.652765,-9.42347,29,1
"liberia-4066",4066,"liberia",6.74135,-9.46078,30,9
"liberia-4067",4067,"liberia",6.65483,-9.37619,30,3
"liberia-4068",4068,"liberia",6.68566,-9.36122,30,19
"liberia-4069",4069,"liberia",6.87272,-9.33208,30,24
"liberia-4070",4070,"liberia",6.72797,-9.52649,30,10
"liberia-4071",4071,"liberia",6.88612,-9.375095,29,17
"liberia-4072",4072,"liberia",6.621805,-9.35708,30,1
"liberia-4073",4073,"liberia",6.76981,-9.526835,30,4
"liberia-4074",4074,"liberia",6.590235,-9.430305,30,0
"liberia-4075",4075,"liberia",6.831845,-9.45761,30,21
"liberia-4078",4078,"liberia",6.727835,-9.391625,29,22
"liberia-4079",4079,"liberia",6.6038,-9.37183,30,2
"liberia-4080",4080,"liberia",6.626465,-9.399585,29,2
"liberia-5101",5101,"liberia",6.9248,-9.293545,30,23
"liberia-5102",5102,"liberia",7.003545,-9.285895,29,20
"liberia-5103",5103,"liberia",6.852175,-9.24266,30,18
"liberia-5104",5104,"liberia",6.89441,-9.179325,30,7
"liberia-5105",5105,"liberia",7.013555,-9.24926,30,19
"liberia-5106",5106,"liberia",7.039465,-9.284205,29,14
"liberia-5107",5107,"liberia",6.863435,-9.114425,30,12
"liberia-5108",5108,"liberia",7.06386,-9.16978,29,2
"liberia-5109",5109,"liberia",7.04335,-9.25588,30,19
"liberia-5110",5110,"liberia",7.089,-9.221035,30,15
"liberia-5111",5111,"liberia",7.06073,-9.196865,30,13
"liberia-5112",5112,"liberia",7.0484,-9.237285,30,9
"liberia-5113",5113,"liberia",7.1512,-9.39996,28,11
"liberia-5114",5114,"liberia",6.816435,-9.186145,30,12
"liberia-5115",5115,"liberia",6.99992,-9.28733,29,18
"liberia-5116",5116,"liberia",6.94028,-9.20686,29,26
"liberia-5117",5117,"liberia",6.92283,-9.19954,23,0
"liberia-5118",5118,"liberia",6.97621,-9.22991,30,24
"liberia-5119",5119,"liberia",6.83929,-9.17419,30,8
"liberia-5120",5120,"liberia",6.94063,-9.22227,29,14
"liberia-6042",6042,"liberia",7.264437,-9.436085,30,13
"liberia-6044",6044,"liberia",7.1477,-9.462955,30,9
"liberia-6045",6045,"liberia",7.132755,-9.403085,29,13
"liberia-6046",6046,"liberia",7.15119,-9.399975,29,16
"liberia-6047",6047,"liberia",7.18624,-9.309905,30,20
"liberia-6048",6048,"liberia",7.17042,-9.337495,29,21
"liberia-6049",6049,"liberia",7.11645,-9.45947,29,15
"liberia-6050",6050,"liberia",7.312235,-9.511825,30,6
"liberia-6051",6051,"liberia",7.24656,-9.390915,29,2
"liberia-6052",6052,"liberia",7.08027,-9.325375,30,15
"liberia-6053",6053,"liberia",7.333895,-9.498835,28,12
"liberia-6054",6054,"liberia",7.283725,-9.48667,30,9
"liberia-6055",6055,"liberia",7.11206,-9.486695,30,7
"liberia-6056",6056,"liberia",7.188545,-9.445225,29,17
"liberia-6057",6057,"liberia",7.008985,-9.35086,30,20
"liberia-6058",6058,"liberia",7.03987,-9.464665,30,9
"liberia-6059",6059,"liberia",7.08695,-9.43776,29,22
"liberia-7021",7021,"liberia",7.08511,-9.798805,30,24
"liberia-7022",7022,"liberia",6.967395,-9.91704,30,1
"liberia-7023",7023,"liberia",7.11236,-9.78322,29,3
"liberia-7024",7024,"liberia",6.99242,-10.057705,15,1
"liberia-7025",7025,"liberia",7.113875,-9.79266,30,0
"liberia-7026",7026,"liberia",7.115075,-9.7853,28,22
"liberia-7027",7027,"liberia",7.08672,-9.74143,30,21
"liberia-7028",7028,"liberia",6.980505,-9.977935,29,2
"liberia-7029",7029,"liberia",6.97521,-9.979935,30,0
"liberia-7030",7030,"liberia",7.00473,-10.007035,30,2
"liberia-7032",7032,"liberia",7.014835,-10.0906,30,1
"liberia-7034",7034,"liberia",7.11084,-9.883875,30,3
"liberia-7035",7035,"liberia",7.08069,-9.86116,30,24
"liberia-7039",7039,"liberia",6.92909,-10.00348,30,0
"liberia-8141",8141,"liberia",6.812791667,-10.3605,30,0
"liberia-8142",8142,"liberia",6.8129305,-10.3604722,30,3
"liberia-8143",8143,"liberia",6.810236,-10.365958,30,2
"liberia-8144",8144,"liberia",6.88986105,-10.3876055,30,1
"liberia-8145",8145,"liberia",6.880597222,-10.38386111,30,1
"liberia-8146",8146,"liberia",6.81509722,-10.36088888,30,0
"liberia-8147",8147,"liberia",6.8081527,-10.3633888,30,0
"liberia-8148",8148,"liberia",6.8084027,-10.36575,30,0
"liberia-8149",8149,"liberia",6.80434722,-10.36063888,30,0
"liberia-8150",8150,"liberia",6.80043055,-10.36280555,30,0
"liberia-8151",8151,"liberia",6.8006111,-10.3659444,30,0
"liberia-8152",8152,"liberia",6.80798611,-10.36263888,29,0
"liberia-8153",8153,"liberia",6.81748611,-10.36330555,30,0
"liberia-8154",8154,"liberia",6.8556527,-10.3246944,28,0
"liberia-8155",8155,"liberia",6.8793472,-10.3033333,30,1
"liberia-8156",8156,"liberia",6.90025,-10.25836111,30,0
"liberia-8157",8157,"liberia",6.794,-10.44266,29,1
"liberia-8158",8158,"liberia",6.816041,-10.468666,30,0
"liberia-8159",8159,"liberia",6.85198611,-10.42441666,30,0
"liberia-8160",8160,"liberia",6.83134722,-10.28083486,29,1
"liberia-9121",9121,"liberia",6.81694444,-9.93633333,30,3
"liberia-9122",9122,"liberia",6.81404166,-9.93736111,25,2
"liberia-9123",9123,"liberia",6.8079305,-9.94525,29,1
"liberia-9124",9124,"liberia",6.8085694,-9.9436666,30,1
"liberia-9125",9125,"liberia",6.8085416,-9.9385833,28,5
"liberia-9126",9126,"liberia",6.78220833,-9.94861111,29,3
"liberia-9127",9127,"liberia",6.78276385,-9.954,29,0
"liberia-9128",9128,"liberia",6.8214077,-9.94262495,14,1
"liberia-9129",9129,"liberia",6.9240694,-9.9624166,29,5
"liberia-9130",9130,"liberia",6.8775833,-9.9890972,29,3
"liberia-9131",9131,"liberia",6.78075,-9.9743333,28,1
"liberia-9132",9132,"liberia",6.767611105,-10.01808333,30,1
"liberia-9133",9133,"liberia",6.7658054,-10.04676,29,0
"liberia-9134",9134,"liberia",6.75113888,-9.952936106,29,4
"liberia-9135",9135,"liberia",6.74990277,-10.10720833,28,3
"liberia-9137",9137,"liberia",6.7644444,-9.952050413,30,3
"liberia-9138",9138,"liberia",6.76320833,-10.03536111,29,2
"liberia-9139",9139,"liberia",6.81045825,-9.9376666,29,4
"liberia-9140",9140,"liberia",6.7578472,-9.9208333,24,4
